2025-292F               
1 66998U 25292F   26004.14658545  .00009536  00000+0  67149-3 0  9990
2 66998  97.6543  81.5031 0015816 196.8875 163.1827 15.05145747  3760
2025-292G               
1 66999U 25292G   26004.14552329  .00009589  00000+0  67416-3 0  9999
2 66999  97.6552  81.5074 0015289 198.5865 161.4804 15.05210846  3769
2025-292H               
1 67000U 25292H   26004.14507863  .00011412  00000+0  79982-3 0  9995
2 67000  97.6566  81.5119 0015173 198.5917 161.4757 15.05281613  3631
2025-292J               
1 67001U 25292J   26004.15521994  .00010571  00000+0  75417-3 0  9992
2 67001  97.6535  81.4909 0015633 189.7594 170.3331 15.04630361  3766
ZK-1A R/B               
1 67002U 25292K   26004.19865286  .00194558  12690-4  82212-3 0  9994
2 67002  97.7182  83.8919 0193650 282.7663  75.2015 15.62435901  3893
STARLINK-35660          
1 67003U 25293A   26004.16668980 -.00130534  00000+0 -21483-2 0  9990
2 67003  69.9992 260.0662 0003255 276.0938 310.5587 15.52592223  3765
STARLINK-35913          
1 67004U 25293B   26004.16668980 -.00095788  00000+0 -15700-2 0  9997
2 67004  69.9994 260.0652 0003010 274.5306 314.0357 15.52574674  3762
STARLINK-36148          
1 67005U 25293C   26004.16668980 -.00074025  00000+0 -12099-2 0  9997
2 67005  69.9994 260.0629 0003252 276.0102 314.4777 15.52560563  3768
STARLINK-36156          
1 67006U 25293D   26004.16668980 -.00115877  00000+0 -19041-2 0  9993
2 67006  69.9994 260.0575 0003006 273.7860 320.5320 15.52582779  3766
STARLINK-36123          
1 67007U 25293E   26004.16668980 -.00086607  00000+0 -14182-2 0  9993
2 67007  69.9994 260.0606 0002636 278.5692 313.8372 15.52565301  3760
STARLINK-36163          
1 67008U 25293F   26004.16668980 -.00098331  00000+0 -16125-2 0  9990
2 67008  69.9994 260.0559 0002747 271.5969 324.6405 15.52572076  3765
STARLINK-36118          
1 67009U 25293G   26004.16668980 -.00073041  00000+0 -11937-2 0  9998
2 67009  69.9994 260.0537 0003162 272.0709 326.0796 15.52560821  3700
