CCSDS_OMM_VERS = 2.0
CREATION_DATE  = 
ORIGINATOR     = 

OBJECT_NAME    = 2025-292F
OBJECT_ID      = 2025-292F
CENTER_NAME    = EARTH
REF_FRAME      = TEME
TIME_SYSTEM    = UTC
MEAN_ELEMENT_THEORY = SGP/SGP4

EPOCH          = 2026-01-04T03:31:04.982880
MEAN_MOTION    = 15.05145747
ECCENTRICITY   = .0015816
INCLINATION    = 97.6543
RA_OF_ASC_NODE = 81.5031
ARG_OF_PERICENTER = 196.8875
MEAN_ANOMALY   = 163.1827

EPHEMERIS_TYPE = 0
CLASSIFICATION_TYPE = U
NORAD_CAT_ID   = 66998
ELEMENT_SET_NO = 999
REV_AT_EPOCH   = 376
BSTAR          = .67149E-3
MEAN_MOTION_DOT = .9536E-4
MEAN_MOTION_DDOT = 0

CCSDS_OMM_VERS = 2.0
CREATION_DATE  = 
ORIGINATOR     = 

OBJECT_NAME    = 2025-292G
OBJECT_ID      = 2025-292G
CENTER_NAME    = EARTH
REF_FRAME      = TEME
TIME_SYSTEM    = UTC
MEAN_ELEMENT_THEORY = SGP/SGP4

EPOCH          = 2026-01-04T03:29:33.212256
MEAN_MOTION    = 15.05210846
ECCENTRICITY   = .0015289
INCLINATION    = 97.6552
RA_OF_ASC_NODE = 81.5074
ARG_OF_PERICENTER = 198.5865
MEAN_ANOMALY   = 161.4804

EPHEMERIS_TYPE = 0
CLASSIFICATION_TYPE = U
NORAD_CAT_ID   = 66999
ELEMENT_SET_NO = 999
REV_AT_EPOCH   = 376
BSTAR          = .67416E-3
MEAN_MOTION_DOT = .9589E-4
MEAN_MOTION_DDOT = 0

CCSDS_OMM_VERS = 2.0
CREATION_DATE  = 
ORIGINATOR     = 

OBJECT_NAME    = 2025-292H
OBJECT_ID      = 2025-292H
CENTER_NAME    = EARTH
REF_FRAME      = TEME
TIME_SYSTEM    = UTC
MEAN_ELEMENT_THEORY = SGP/SGP4

EPOCH          = 2026-01-04T03:28:54.793632
MEAN_MOTION    = 15.05281613
ECCENTRICITY   = .0015173
INCLINATION    = 97.6566
RA_OF_ASC_NODE = 81.5119
ARG_OF_PERICENTER = 198.5917
MEAN_ANOMALY   = 161.4757

EPHEMERIS_TYPE = 0
CLASSIFICATION_TYPE = U
NORAD_CAT_ID   = 67000
ELEMENT_SET_NO = 999
REV_AT_EPOCH   = 363
BSTAR          = .79982E-3
MEAN_MOTION_DOT = .11412E-3
MEAN_MOTION_DDOT = 0

CCSDS_OMM_VERS = 2.0
CREATION_DATE  = 
ORIGINATOR     = 

OBJECT_NAME    = 2025-292J
OBJECT_ID      = 2025-292J
CENTER_NAME    = EARTH
REF_FRAME      = TEME
TIME_SYSTEM    = UTC
MEAN_ELEMENT_THEORY = SGP/SGP4

EPOCH          = 2026-01-04T03:43:31.002816
MEAN_MOTION    = 15.04630361
ECCENTRICITY   = .0015633
INCLINATION    = 97.6535
RA_OF_ASC_NODE = 81.4909
ARG_OF_PERICENTER = 189.7594
MEAN_ANOMALY   = 170.3331

EPHEMERIS_TYPE = 0
CLASSIFICATION_TYPE = U
NORAD_CAT_ID   = 67001
ELEMENT_SET_NO = 999
REV_AT_EPOCH   = 376
BSTAR          = .75417E-3
MEAN_MOTION_DOT = .10571E-3
MEAN_MOTION_DDOT = 0

CCSDS_OMM_VERS = 2.0
CREATION_DATE  = 
ORIGINATOR     = 

OBJECT_NAME    = ZK-1A R/B
OBJECT_ID      = 2025-292K
CENTER_NAME    = EARTH
REF_FRAME      = TEME
TIME_SYSTEM    = UTC
MEAN_ELEMENT_THEORY = SGP/SGP4

EPOCH          = 2026-01-04T04:46:03.607104
MEAN_MOTION    = 15.62435901
ECCENTRICITY   = .019365
INCLINATION    = 97.7182
RA_OF_ASC_NODE = 83.8919
ARG_OF_PERICENTER = 282.7663
MEAN_ANOMALY   = 75.2015

EPHEMERIS_TYPE = 0
CLASSIFICATION_TYPE = U
NORAD_CAT_ID   = 67002
ELEMENT_SET_NO = 999
REV_AT_EPOCH   = 389
BSTAR          = .82212E-3
MEAN_MOTION_DOT = .194558E-2
MEAN_MOTION_DDOT = .1269E-4

CCSDS_OMM_VERS = 2.0
CREATION_DATE  = 
ORIGINATOR     = 

OBJECT_NAME    = STARLINK-35660
OBJECT_ID      = 2025-293A
CENTER_NAME    = EARTH
REF_FRAME      = TEME
TIME_SYSTEM    = UTC
MEAN_ELEMENT_THEORY = SGP/SGP4

EPOCH          = 2026-01-04T04:00:01.998720
MEAN_MOTION    = 15.52592223
ECCENTRICITY   = .0003255
INCLINATION    = 69.9992
RA_OF_ASC_NODE = 260.0662
ARG_OF_PERICENTER = 276.0938
MEAN_ANOMALY   = 310.5587

EPHEMERIS_TYPE = 0
CLASSIFICATION_TYPE = U
NORAD_CAT_ID   = 67003
ELEMENT_SET_NO = 999
REV_AT_EPOCH   = 376
BSTAR          = -.21483E-2
MEAN_MOTION_DOT = -.130534E-2
MEAN_MOTION_DDOT = 0

CCSDS_OMM_VERS = 2.0
CREATION_DATE  = 
ORIGINATOR     = 

OBJECT_NAME    = STARLINK-35913
OBJECT_ID      = 2025-293B
CENTER_NAME    = EARTH
REF_FRAME      = TEME
TIME_SYSTEM    = UTC
MEAN_ELEMENT_THEORY = SGP/SGP4

EPOCH          = 2026-01-04T04:00:01.998720
MEAN_MOTION    = 15.52574674
ECCENTRICITY   = .000301
INCLINATION    = 69.9994
RA_OF_ASC_NODE = 260.0652
ARG_OF_PERICENTER = 274.5306
MEAN_ANOMALY   = 314.0357

EPHEMERIS_TYPE = 0
CLASSIFICATION_TYPE = U
NORAD_CAT_ID   = 67004
ELEMENT_SET_NO = 999
REV_AT_EPOCH   = 376
BSTAR          = -.157E-2
MEAN_MOTION_DOT = -.95788E-3
MEAN_MOTION_DDOT = 0

CCSDS_OMM_VERS = 2.0
CREATION_DATE  = 
ORIGINATOR     = 

OBJECT_NAME    = STARLINK-36148
OBJECT_ID      = 2025-293C
CENTER_NAME    = EARTH
REF_FRAME      = TEME
TIME_SYSTEM    = UTC
MEAN_ELEMENT_THEORY = SGP/SGP4

EPOCH          = 2026-01-04T04:00:01.998720
MEAN_MOTION    = 15.52560563
ECCENTRICITY   = .0003252
INCLINATION    = 69.9994
RA_OF_ASC_NODE = 260.0629
ARG_OF_PERICENTER = 276.0102
MEAN_ANOMALY   = 314.4777

EPHEMERIS_TYPE = 0
CLASSIFICATION_TYPE = U
NORAD_CAT_ID   = 67005
ELEMENT_SET_NO = 999
REV_AT_EPOCH   = 376
BSTAR          = -.12099E-2
MEAN_MOTION_DOT = -.74025E-3
MEAN_MOTION_DDOT = 0

CCSDS_OMM_VERS = 2.0
CREATION_DATE  = 
ORIGINATOR     = 

OBJECT_NAME    = STARLINK-36156
OBJECT_ID      = 2025-293D
CENTER_NAME    = EARTH
REF_FRAME      = TEME
TIME_SYSTEM    = UTC
MEAN_ELEMENT_THEORY = SGP/SGP4

EPOCH          = 2026-01-04T04:00:01.998720
MEAN_MOTION    = 15.52582779
ECCENTRICITY   = .0003006
INCLINATION    = 69.9994
RA_OF_ASC_NODE = 260.0575
ARG_OF_PERICENTER = 273.7860
MEAN_ANOMALY   = 320.5320

EPHEMERIS_TYPE = 0
CLASSIFICATION_TYPE = U
NORAD_CAT_ID   = 67006
ELEMENT_SET_NO = 999
REV_AT_EPOCH   = 376
BSTAR          = -.19041E-2
MEAN_MOTION_DOT = -.115877E-2
MEAN_MOTION_DDOT = 0

CCSDS_OMM_VERS = 2.0
CREATION_DATE  = 
ORIGINATOR     = 

OBJECT_NAME    = STARLINK-36123
OBJECT_ID      = 2025-293E
CENTER_NAME    = EARTH
REF_FRAME      = TEME
TIME_SYSTEM    = UTC
MEAN_ELEMENT_THEORY = SGP/SGP4

EPOCH          = 2026-01-04T04:00:01.998720
MEAN_MOTION    = 15.52565301
ECCENTRICITY   = .0002636
INCLINATION    = 69.9994
RA_OF_ASC_NODE = 260.0606
ARG_OF_PERICENTER = 278.5692
MEAN_ANOMALY   = 313.8372

EPHEMERIS_TYPE = 0
CLASSIFICATION_TYPE = U
NORAD_CAT_ID   = 67007
ELEMENT_SET_NO = 999
REV_AT_EPOCH   = 376
BSTAR          = -.14182E-2
MEAN_MOTION_DOT = -.86607E-3
MEAN_MOTION_DDOT = 0

CCSDS_OMM_VERS = 2.0
CREATION_DATE  = 
ORIGINATOR     = 

OBJECT_NAME    = STARLINK-36163
OBJECT_ID      = 2025-293F
CENTER_NAME    = EARTH
REF_FRAME      = TEME
TIME_SYSTEM    = UTC
MEAN_ELEMENT_THEORY = SGP/SGP4

EPOCH          = 2026-01-04T04:00:01.998720
MEAN_MOTION    = 15.52572076
ECCENTRICITY   = .0002747
INCLINATION    = 69.9994
RA_OF_ASC_NODE = 260.0559
ARG_OF_PERICENTER = 271.5969
MEAN_ANOMALY   = 324.6405

EPHEMERIS_TYPE = 0
CLASSIFICATION_TYPE = U
NORAD_CAT_ID   = 67008
ELEMENT_SET_NO = 999
REV_AT_EPOCH   = 376
BSTAR          = -.16125E-2
MEAN_MOTION_DOT = -.98331E-3
MEAN_MOTION_DDOT = 0

CCSDS_OMM_VERS = 2.0
CREATION_DATE  = 
ORIGINATOR     = 

OBJECT_NAME    = STARLINK-36118
OBJECT_ID      = 2025-293G
CENTER_NAME    = EARTH
REF_FRAME      = TEME
TIME_SYSTEM    = UTC
MEAN_ELEMENT_THEORY = SGP/SGP4

EPOCH          = 2026-01-04T04:00:01.998720
MEAN_MOTION    = 15.52560821
ECCENTRICITY   = .0003162
INCLINATION    = 69.9994
RA_OF_ASC_NODE = 260.0537
ARG_OF_PERICENTER = 272.0709
MEAN_ANOMALY   = 326.0796

EPHEMERIS_TYPE = 0
CLASSIFICATION_TYPE = U
NORAD_CAT_ID   = 67009
ELEMENT_SET_NO = 999
REV_AT_EPOCH   = 370
BSTAR          = -.11937E-2
MEAN_MOTION_DOT = -.73041E-3
MEAN_MOTION_DDOT = 0

